STARLINK-36550          
1 67495U 26012C   26033.25002315 -.00323832  00000+0 -15783-2 0  9992
2 67495  42.9961 158.7086 0001925 273.9081 108.2767 15.82217505  3376
STARLINK-36534          
1 67496U 26012D   26033.25002315 -.00701464  00000+0 -35243-2 0  9997
2 67496  42.9965 158.6881 0001662 264.7975 125.4271 15.82504425  3316
STARLINK-36555          
1 67497U 26012E   26033.25002315 -.00566872  00000+0 -28225-2 0  9992
2 67497  42.9963 158.6996 0001310 270.9414 114.8165 15.82369057  3379
STARLINK-36081          
1 67498U 26012F   26033.25002315 -.01120169  00000+0 -57184-2 0  9995
2 67498  42.9964 158.6742 0001651 273.8210 121.9624 15.82788186  3315
STARLINK-36558          
1 67499U 26012G   26033.25002315 -.01243266  00000+0 -63930-2 0  9996
2 67499  42.9963 158.6674 0001666 271.0725 127.5285 15.82901876  3370
STARLINK-36557          
1 67500U 26012H   26033.25002315 -.01283263  00000+0 -65878-2 0  9993
2 67500  42.9967 158.6546 0001307 268.3561 134.9047 15.83028131  3377
STARLINK-36433          
1 67501U 26012J   26033.25002315 -.01435852  00000+0 -72640-2 0  9992
2 67501  42.9963 158.6450 0001797 268.6047 138.7004 15.83191410  3379
STARLINK-36554          
1 67502U 26012K   26031.54141203 -.00542080  00000+0 -18363-2 0  9996
2 67502  42.9959 169.1781 0002304 283.2379  76.8239 15.90127469  2029
STARLINK-36552          
1 67503U 26012L   26033.25002315 -.01604297  00000+0 -81189-2 0  9993
2 67503  42.9964 158.6234 0001575 274.5326 141.2624 15.83501870  3374
STARLINK-36512          
1 67504U 26012M   26033.25002315 -.01618503  00000+0 -81404-2 0  9999
2 67504  42.9964 158.6104 0001675 275.9579 144.9371 15.83655826  3377
STARLINK-36545          
1 67505U 26012N   26033.25002315 -.01636871  00000+0 -82136-2 0  9991
2 67505  42.9964 158.6028 0001539 275.6784 148.1596 15.83740932  3375
STARLINK-36553          
1 67506U 26012P   26033.25002315 -.01652391  00000+0 -82578-2 0  9997
2 67506  42.9966 158.5931 0001216 274.8379 153.1338 15.83859274  3373
