CCSDS_OMM_VERS = 2.0
CREATION_DATE  = 
ORIGINATOR     = 

OBJECT_NAME    = STARLINK-36550
OBJECT_ID      = 2026-012C
CENTER_NAME    = EARTH
REF_FRAME      = TEME
TIME_SYSTEM    = UTC
MEAN_ELEMENT_THEORY = SGP/SGP4

EPOCH          = 2026-02-02T06:00:02.000160
MEAN_MOTION    = 15.82217505
ECCENTRICITY   = .00019253
INCLINATION    = 42.9961
RA_OF_ASC_NODE = 158.7086
ARG_OF_PERICENTER = 273.9081
MEAN_ANOMALY   = 108.2767

EPHEMERIS_TYPE = 0
CLASSIFICATION_TYPE = U
NORAD_CAT_ID   = 67495
ELEMENT_SET_NO = 999
REV_AT_EPOCH   = 337
BSTAR          = -.15782687E-2
MEAN_MOTION_DOT = -.323832E-2
MEAN_MOTION_DDOT = 0

CCSDS_OMM_VERS = 2.0
CREATION_DATE  = 
ORIGINATOR     = 

OBJECT_NAME    = STARLINK-36534
OBJECT_ID      = 2026-012D
CENTER_NAME    = EARTH
REF_FRAME      = TEME
TIME_SYSTEM    = UTC
MEAN_ELEMENT_THEORY = SGP/SGP4

EPOCH          = 2026-02-02T06:00:02.000160
MEAN_MOTION    = 15.82504425
ECCENTRICITY   = .00016628
INCLINATION    = 42.9965
RA_OF_ASC_NODE = 158.6881
ARG_OF_PERICENTER = 264.7975
MEAN_ANOMALY   = 125.4271

EPHEMERIS_TYPE = 0
CLASSIFICATION_TYPE = U
NORAD_CAT_ID   = 67496
ELEMENT_SET_NO = 999
REV_AT_EPOCH   = 331
BSTAR          = -.35243461E-2
MEAN_MOTION_DOT = -.701464E-2
MEAN_MOTION_DDOT = 0

CCSDS_OMM_VERS = 2.0
CREATION_DATE  = 
ORIGINATOR     = 

OBJECT_NAME    = STARLINK-36555
OBJECT_ID      = 2026-012E
CENTER_NAME    = EARTH
REF_FRAME      = TEME
TIME_SYSTEM    = UTC
MEAN_ELEMENT_THEORY = SGP/SGP4

EPOCH          = 2026-02-02T06:00:02.000160
MEAN_MOTION    = 15.82369057
ECCENTRICITY   = .00013106
INCLINATION    = 42.9963
RA_OF_ASC_NODE = 158.6996
ARG_OF_PERICENTER = 270.9414
MEAN_ANOMALY   = 114.8165

EPHEMERIS_TYPE = 0
CLASSIFICATION_TYPE = U
NORAD_CAT_ID   = 67497
ELEMENT_SET_NO = 999
REV_AT_EPOCH   = 337
BSTAR          = -.28224974E-2
MEAN_MOTION_DOT = -.566872E-2
MEAN_MOTION_DDOT = 0

CCSDS_OMM_VERS = 2.0
CREATION_DATE  = 
ORIGINATOR     = 

OBJECT_NAME    = STARLINK-36081
OBJECT_ID      = 2026-012F
CENTER_NAME    = EARTH
REF_FRAME      = TEME
TIME_SYSTEM    = UTC
MEAN_ELEMENT_THEORY = SGP/SGP4

EPOCH          = 2026-02-02T06:00:02.000160
MEAN_MOTION    = 15.82788186
ECCENTRICITY   = .00016515
INCLINATION    = 42.9964
RA_OF_ASC_NODE = 158.6742
ARG_OF_PERICENTER = 273.8210
MEAN_ANOMALY   = 121.9624

EPHEMERIS_TYPE = 0
CLASSIFICATION_TYPE = U
NORAD_CAT_ID   = 67498
ELEMENT_SET_NO = 999
REV_AT_EPOCH   = 331
BSTAR          = -.57184439E-2
MEAN_MOTION_DOT = -.1120169E-1
MEAN_MOTION_DDOT = 0

CCSDS_OMM_VERS = 2.0
CREATION_DATE  = 
ORIGINATOR     = 

OBJECT_NAME    = STARLINK-36558
OBJECT_ID      = 2026-012G
CENTER_NAME    = EARTH
REF_FRAME      = TEME
TIME_SYSTEM    = UTC
MEAN_ELEMENT_THEORY = SGP/SGP4

EPOCH          = 2026-02-02T06:00:02.000160
MEAN_MOTION    = 15.82901876
ECCENTRICITY   = .00016665
INCLINATION    = 42.9963
RA_OF_ASC_NODE = 158.6674
ARG_OF_PERICENTER = 271.0725
MEAN_ANOMALY   = 127.5285

EPHEMERIS_TYPE = 0
CLASSIFICATION_TYPE = U
NORAD_CAT_ID   = 67499
ELEMENT_SET_NO = 999
REV_AT_EPOCH   = 337
BSTAR          = -.63929786E-2
MEAN_MOTION_DOT = -.1243266E-1
MEAN_MOTION_DDOT = 0

CCSDS_OMM_VERS = 2.0
CREATION_DATE  = 
ORIGINATOR     = 

OBJECT_NAME    = STARLINK-36557
OBJECT_ID      = 2026-012H
CENTER_NAME    = EARTH
REF_FRAME      = TEME
TIME_SYSTEM    = UTC
MEAN_ELEMENT_THEORY = SGP/SGP4

EPOCH          = 2026-02-02T06:00:02.000160
MEAN_MOTION    = 15.83028131
ECCENTRICITY   = .00013079
INCLINATION    = 42.9967
RA_OF_ASC_NODE = 158.6546
ARG_OF_PERICENTER = 268.3561
MEAN_ANOMALY   = 134.9047

EPHEMERIS_TYPE = 0
CLASSIFICATION_TYPE = U
NORAD_CAT_ID   = 67500
ELEMENT_SET_NO = 999
REV_AT_EPOCH   = 337
BSTAR          = -.65878487E-2
MEAN_MOTION_DOT = -.1283263E-1
MEAN_MOTION_DDOT = 0

CCSDS_OMM_VERS = 2.0
CREATION_DATE  = 
ORIGINATOR     = 

OBJECT_NAME    = STARLINK-36433
OBJECT_ID      = 2026-012J
CENTER_NAME    = EARTH
REF_FRAME      = TEME
TIME_SYSTEM    = UTC
MEAN_ELEMENT_THEORY = SGP/SGP4

EPOCH          = 2026-02-02T06:00:02.000160
MEAN_MOTION    = 15.83191410
ECCENTRICITY   = .00017972
INCLINATION    = 42.9963
RA_OF_ASC_NODE = 158.6450
ARG_OF_PERICENTER = 268.6047
MEAN_ANOMALY   = 138.7004

EPHEMERIS_TYPE = 0
CLASSIFICATION_TYPE = U
NORAD_CAT_ID   = 67501
ELEMENT_SET_NO = 999
REV_AT_EPOCH   = 337
BSTAR          = -.72639964E-2
MEAN_MOTION_DOT = -.1435852E-1
MEAN_MOTION_DDOT = 0

CCSDS_OMM_VERS = 2.0
CREATION_DATE  = 
ORIGINATOR     = 

OBJECT_NAME    = STARLINK-36554
OBJECT_ID      = 2026-012K
CENTER_NAME    = EARTH
REF_FRAME      = TEME
TIME_SYSTEM    = UTC
MEAN_ELEMENT_THEORY = SGP/SGP4

EPOCH          = 2026-01-31T12:59:37.999392
MEAN_MOTION    = 15.90127469
ECCENTRICITY   = .00023045
INCLINATION    = 42.9959
RA_OF_ASC_NODE = 169.1781
ARG_OF_PERICENTER = 283.2379
MEAN_ANOMALY   = 76.8239

EPHEMERIS_TYPE = 0
CLASSIFICATION_TYPE = U
NORAD_CAT_ID   = 67502
ELEMENT_SET_NO = 999
REV_AT_EPOCH   = 202
BSTAR          = -.18362903E-2
MEAN_MOTION_DOT = -.54208E-2
MEAN_MOTION_DDOT = 0

CCSDS_OMM_VERS = 2.0
CREATION_DATE  = 
ORIGINATOR     = 

OBJECT_NAME    = STARLINK-36552
OBJECT_ID      = 2026-012L
CENTER_NAME    = EARTH
REF_FRAME      = TEME
TIME_SYSTEM    = UTC
MEAN_ELEMENT_THEORY = SGP/SGP4

EPOCH          = 2026-02-02T06:00:02.000160
MEAN_MOTION    = 15.83501870
ECCENTRICITY   = .00015751
INCLINATION    = 42.9964
RA_OF_ASC_NODE = 158.6234
ARG_OF_PERICENTER = 274.5326
MEAN_ANOMALY   = 141.2624

EPHEMERIS_TYPE = 0
CLASSIFICATION_TYPE = U
NORAD_CAT_ID   = 67503
ELEMENT_SET_NO = 999
REV_AT_EPOCH   = 337
BSTAR          = -.81189117E-2
MEAN_MOTION_DOT = -.1604297E-1
MEAN_MOTION_DDOT = 0

CCSDS_OMM_VERS = 2.0
CREATION_DATE  = 
ORIGINATOR     = 

OBJECT_NAME    = STARLINK-36512
OBJECT_ID      = 2026-012M
CENTER_NAME    = EARTH
REF_FRAME      = TEME
TIME_SYSTEM    = UTC
MEAN_ELEMENT_THEORY = SGP/SGP4

EPOCH          = 2026-02-02T06:00:02.000160
MEAN_MOTION    = 15.83655826
ECCENTRICITY   = .00016754
INCLINATION    = 42.9964
RA_OF_ASC_NODE = 158.6104
ARG_OF_PERICENTER = 275.9579
MEAN_ANOMALY   = 144.9371

EPHEMERIS_TYPE = 0
CLASSIFICATION_TYPE = U
NORAD_CAT_ID   = 67504
ELEMENT_SET_NO = 999
REV_AT_EPOCH   = 337
BSTAR          = -.81403895E-2
MEAN_MOTION_DOT = -.1618503E-1
MEAN_MOTION_DDOT = 0

CCSDS_OMM_VERS = 2.0
CREATION_DATE  = 
ORIGINATOR     = 

OBJECT_NAME    = STARLINK-36545
OBJECT_ID      = 2026-012N
CENTER_NAME    = EARTH
REF_FRAME      = TEME
TIME_SYSTEM    = UTC
MEAN_ELEMENT_THEORY = SGP/SGP4

EPOCH          = 2026-02-02T06:00:02.000160
MEAN_MOTION    = 15.83740932
ECCENTRICITY   = .00015393
INCLINATION    = 42.9964
RA_OF_ASC_NODE = 158.6028
ARG_OF_PERICENTER = 275.6784
MEAN_ANOMALY   = 148.1596

EPHEMERIS_TYPE = 0
CLASSIFICATION_TYPE = U
NORAD_CAT_ID   = 67505
ELEMENT_SET_NO = 999
REV_AT_EPOCH   = 337
BSTAR          = -.82136283E-2
MEAN_MOTION_DOT = -.1636871E-1
MEAN_MOTION_DDOT = 0

CCSDS_OMM_VERS = 2.0
CREATION_DATE  = 
ORIGINATOR     = 

OBJECT_NAME    = STARLINK-36553
OBJECT_ID      = 2026-012P
CENTER_NAME    = EARTH
REF_FRAME      = TEME
TIME_SYSTEM    = UTC
MEAN_ELEMENT_THEORY = SGP/SGP4

EPOCH          = 2026-02-02T06:00:02.000160
MEAN_MOTION    = 15.83859274
ECCENTRICITY   = .00012169
INCLINATION    = 42.9966
RA_OF_ASC_NODE = 158.5931
ARG_OF_PERICENTER = 274.8379
MEAN_ANOMALY   = 153.1338

EPHEMERIS_TYPE = 0
CLASSIFICATION_TYPE = U
NORAD_CAT_ID   = 67506
ELEMENT_SET_NO = 999
REV_AT_EPOCH   = 337
BSTAR          = -.82577572E-2
MEAN_MOTION_DOT = -.1652391E-1
MEAN_MOTION_DDOT = 0

